     2.11           N: GPS NAV DATA                         RINEX VERSION / TYPE
teqc  2019Feb25                         20221121 12:26:30UTCPGM / RUN BY / DATE
OSX ker:10.11.6|Core i5|gcc 4.3 -m64|OSX ker:10.10+|=+      COMMENT
    5.5879D-09  1.4901D-08 -5.9605D-08 -1.1921D-07          ION ALPHA
    7.7824D+04  3.2768D+04 -6.5536D+04 -2.6214D+05          ION BETA
    3.725290298462D-09 1.332267629550D-14   147456     1546 DELTA-UTC: A0,A1,T,W
                                                            END OF HEADER
12 09  8 22 23 59 44.0-2.303468063474D-04 5.798028723802D-12 0.000000000000D+00
    1.300000000000D+01-3.571875000000D+01 4.901989901841D-09 1.634844910836D+00
   -1.989305019379D-06 3.135636216030D-03 3.889203071594D-06 5.153583633423D+03
    6.047840000000D+05 4.470348358154D-08 2.292093306932D+00 6.705522537231D-08
    9.677395497338D-01 3.124375000000D+02-6.031841357832D-01-8.361062557530D-09
   -6.643133856047D-11 1.000000000000D+00 1.545000000000D+03 0.000000000000D+00
    2.000000000000D+00 0.000000000000D+00-1.164153218269D-08 1.300000000000D+01
    6.045780000000D+05 4.000000000000D+00
